{
  "type": "FeatureCollection",
  "features": [
    {
      "type": "Feature",
      "properties": {
        "norad_id": 33860,
        "name": "IRIDIUM 33 DEB",
        "group": "iridium-33-debris",
        "lat": 47.84986193902542,
        "lon": -160.60404568851527,
        "alt_km": 669.4385191435922,
        "timestamp": "2025-12-21T09:37:23.039552+00:00",
        "meta_object_name": "IRIDIUM 33 DEB",
        "meta_object_id": "1997-051AD",
        "meta_epoch": "2025-12-21T00:58:06.257280",
        "meta_mean_motion": 14.6745799,
        "meta_eccentricity": 0.0006432,
        "meta_inclination": 86.3822,
        "meta_ra_of_asc_node": 23.5637,
        "meta_arg_of_pericenter": 326.2778,
        "meta_mean_anomaly": 61.8404,
        "meta_ephemeris_type": 0,
        "meta_classification_type": "U",
        "meta_norad_cat_id": 33860,
        "meta_element_set_no": 999,
        "meta_rev_at_epoch": 88844,
        "meta_bstar": 0.0007065,
        "meta_mean_motion_dot": 4.021e-05,
        "meta_mean_motion_ddot": 0,
        "tle_line1": "1 33860U 97051AD  25355.04035020  .00004021  00000+0  70650-3 0  9993",
        "tle_line2": "2 33860  86.3822  23.5637 0006432 326.2778  61.8404 14.67457990888444"
      },
      "geometry": {
        "type": "Point",
        "coordinates": [
          -160.60404568851527,
          47.84986193902542
        ]
      }
    },
    {
      "type": "Feature",
      "properties": {
        "norad_id": 33862,
        "name": "IRIDIUM 33 DEB",
        "group": "iridium-33-debris",
        "lat": -53.12772238563495,
        "lon": -141.484947826048,
        "alt_km": 705.522710456532,
        "timestamp": "2025-12-21T09:37:23.039565+00:00",
        "meta_object_name": "IRIDIUM 33 DEB",
        "meta_object_id": "1997-051AF",
        "meta_epoch": "2025-12-21T03:56:03.629760",
        "meta_mean_motion": 14.69594486,
        "meta_eccentricity": 0.0052612,
        "meta_inclination": 86.4078,
        "meta_ra_of_asc_node": 33.8153,
        "meta_arg_of_pericenter": 40.9364,
        "meta_mean_anomaly": 19.2005,
        "meta_ephemeris_type": 0,
        "meta_classification_type": "U",
        "meta_norad_cat_id": 33862,
        "meta_element_set_no": 999,
        "meta_rev_at_epoch": 88947,
        "meta_bstar": 0.00086313,
        "meta_mean_motion_dot": 5.261e-05,
        "meta_mean_motion_ddot": 0,
        "tle_line1": "1 33862U 97051AF  25355.16393090  .00005261  00000+0  86313-3 0  9992",
        "tle_line2": "2 33862  86.4078  33.8153 0052612  40.9364  19.2005 14.69594486889471"
      },
      "geometry": {
        "type": "Point",
        "coordinates": [
          -141.484947826048,
          -53.12772238563495
        ]
      }
    },
    {
      "type": "Feature",
      "properties": {
        "norad_id": 33866,
        "name": "IRIDIUM 33 DEB",
        "group": "iridium-33-debris",
        "lat": -0.3209379737954248,
        "lon": 89.35079808539946,
        "alt_km": 867.6104517869035,
        "timestamp": "2025-12-21T09:37:23.039577+00:00",
        "meta_object_name": "IRIDIUM 33 DEB",
        "meta_object_id": "1997-051AK",
        "meta_epoch": "2025-12-20T19:02:31.124256",
        "meta_mean_motion": 14.25296873,
        "meta_eccentricity": 0.01150044,
        "meta_inclination": 86.3001,
        "meta_ra_of_asc_node": 89.6286,
        "meta_arg_of_pericenter": 135.8612,
        "meta_mean_anomaly": 349.482,
        "meta_ephemeris_type": 0,
        "meta_classification_type": "U",
        "meta_norad_cat_id": 33866,
        "meta_element_set_no": 999,
        "meta_rev_at_epoch": 86925,
        "meta_bstar": 0.0003750045,
        "meta_mean_motion_dot": 9.66e-06,
        "meta_mean_motion_ddot": 0,
        "tle_line1": "1 33866U 97051AK  25354.79341579  .00000966  00000+0  37500-3 0  9990",
        "tle_line2": "2 33866  86.3001  89.6286 0115004 135.8612 349.4820 14.25296873869259"
      },
      "geometry": {
        "type": "Point",
        "coordinates": [
          89.35079808539946,
          -0.3209379737954248
        ]
      }
    },
    {
      "type": "Feature",
      "properties": {
        "norad_id": 33867,
        "name": "IRIDIUM 33 DEB",
        "group": "iridium-33-debris",
        "lat": 68.41560624268172,
        "lon": -5.203708859185456,
        "alt_km": 293.9493064066655,
        "timestamp": "2025-12-21T09:37:23.039588+00:00",
        "meta_object_name": "IRIDIUM 33 DEB",
        "meta_object_id": "1997-051AL",
        "meta_epoch": "2025-12-20T00:00:24.546240",
        "meta_mean_motion": 15.83320916,
        "meta_eccentricity": 0.00135723,
        "meta_inclination": 86.3644,
        "meta_ra_of_asc_node": 346.2932,
        "meta_arg_of_pericenter": 95.1198,
        "meta_mean_anomaly": 265.1629,
        "meta_ephemeris_type": 0,
        "meta_classification_type": "U",
        "meta_norad_cat_id": 33867,
        "meta_element_set_no": 999,
        "meta_rev_at_epoch": 89625,
        "meta_bstar": 0.0064207293,
        "meta_mean_motion_dot": 0.01574163,
        "meta_mean_motion_ddot": 0,
        "tle_line1": "1 33867U 97051AL  25354.00028410  .01574163  00000+0  64207-2 0  9990",
        "tle_line2": "2 33867  86.3644 346.2932 0013572  95.1198 265.1629 15.83320916896259"
      },
      "geometry": {
        "type": "Point",
        "coordinates": [
          -5.203708859185456,
          68.41560624268172
        ]
      }
    },
    {
      "type": "Feature",
      "properties": {
        "norad_id": 33870,
        "name": "IRIDIUM 33 DEB",
        "group": "iridium-33-debris",
        "lat": 20.042213375189792,
        "lon": 55.873872749132666,
        "alt_km": 749.4737373000689,
        "timestamp": "2025-12-21T09:37:23.039599+00:00",
        "meta_object_name": "IRIDIUM 33 DEB",
        "meta_object_id": "1997-051AP",
        "meta_epoch": "2025-12-21T02:58:57.296064",
        "meta_mean_motion": 14.45889027,
        "meta_eccentricity": 0.0022289,
        "meta_inclination": 86.3739,
        "meta_ra_of_asc_node": 54.6669,
        "meta_arg_of_pericenter": 151.351,
        "meta_mean_anomaly": 229.7461,
        "meta_ephemeris_type": 0,
        "meta_classification_type": "U",
        "meta_norad_cat_id": 33870,
        "meta_element_set_no": 999,
        "meta_rev_at_epoch": 88258,
        "meta_bstar": 0.00047353,
        "meta_mean_motion_dot": 1.707e-05,
        "meta_mean_motion_ddot": 0,
        "tle_line1": "1 33870U 97051AP  25355.12427426  .00001707  00000+0  47353-3 0  9990",
        "tle_line2": "2 33870  86.3739  54.6669 0022289 151.3510 229.7461 14.45889027882584"
      },
      "geometry": {
        "type": "Point",
        "coordinates": [
          55.873872749132666,
          20.042213375189792
        ]
      }
    },
    {
      "type": "Feature",
      "properties": {
        "norad_id": 33881,
        "name": "IRIDIUM 33 DEB",
        "group": "iridium-33-debris",
        "lat": -44.8600957130156,
        "lon": -73.4164012602261,
        "alt_km": 701.53643791577,
        "timestamp": "2025-12-21T09:37:23.039613+00:00",
        "meta_object_name": "IRIDIUM 33 DEB",
        "meta_object_id": "1997-051BA",
        "meta_epoch": "2025-12-20T18:27:12.976416",
        "meta_mean_motion": 14.56702482,
        "meta_eccentricity": 0.00613627,
        "meta_inclination": 86.3866,
        "meta_ra_of_asc_node": 103.253,
        "meta_arg_of_pericenter": 148.7613,
        "meta_mean_anomaly": 2.955,
        "meta_ephemeris_type": 0,
        "meta_classification_type": "U",
        "meta_norad_cat_id": 33881,
        "meta_element_set_no": 999,
        "meta_rev_at_epoch": 87617,
        "meta_bstar": 0.0011797904,
        "meta_mean_motion_dot": 5.428e-05,
        "meta_mean_motion_ddot": 0,
        "tle_line1": "1 33881U 97051BA  25354.76890019  .00005428  00000+0  11798-2 0  9990",
        "tle_line2": "2 33881  86.3866 103.2530 0061362 148.7613   2.9550 14.56702482876173"
      },
      "geometry": {
        "type": "Point",
        "coordinates": [
          -73.4164012602261,
          -44.8600957130156
        ]
      }
    },
    {
      "type": "Feature",
      "properties": {
        "norad_id": 33884,
        "name": "IRIDIUM 33 DEB",
        "group": "iridium-33-debris",
        "lat": 78.97803306756842,
        "lon": 166.88257747955714,
        "alt_km": 636.0096630803746,
        "timestamp": "2025-12-21T09:37:23.039624+00:00",
        "meta_object_name": "IRIDIUM 33 DEB",
        "meta_object_id": "1997-051BD",
        "meta_epoch": "2025-12-20T19:06:20.177568",
        "meta_mean_motion": 14.77573333,
        "meta_eccentricity": 0.00091017,
        "meta_inclination": 86.3692,
        "meta_ra_of_asc_node": 6.1816,
        "meta_arg_of_pericenter": 292.2796,
        "meta_mean_anomaly": 192.6099,
        "meta_ephemeris_type": 0,
        "meta_classification_type": "U",
        "meta_norad_cat_id": 33884,
        "meta_element_set_no": 999,
        "meta_rev_at_epoch": 88966,
        "meta_bstar": 0.00096382416,
        "meta_mean_motion_dot": 6.912e-05,
        "meta_mean_motion_ddot": 0,
        "tle_line1": "1 33884U 97051BD  25354.79606687  .00006912  00000+0  96382-3 0  9994",
        "tle_line2": "2 33884  86.3692   6.1816 0009101 292.2796 192.6099 14.77573333889668"
      },
      "geometry": {
        "type": "Point",
        "coordinates": [
          166.88257747955714,
          78.97803306756842
        ]
      }
    }
  ]
}